ONEWEB-0159             
1 48062U 21025W   25110.78619605  .00000080  00000+0  18515-3 0  9991
2 48062  87.8979  44.1438 0001916  88.9453 271.1896 13.13470681198150
ONEWEB-0164             
1 48063U 21025X   25110.76755240 -.00000610  00000+0 -17058-2 0  9997
2 48063  87.8981  44.1580 0001950  79.1596 280.9752 13.13470543198134
ONEWEB-0167             
1 48064U 21025Y   25110.79551347  .00000343  00000+0  90295-3 0  9999
2 48064  87.8989  44.1747 0001091  83.4339 276.6914 13.13472043198125
ONEWEB-0166             
1 48065U 21025Z   25110.74216664  .00000087  00000+0  20272-3 0  9998
2 48065  87.8977  44.1503 0002054  84.0213 276.1150 13.13472411198194
ONEWEB-0151             
1 48066U 21025AA  25110.74386440  .00000042  00000+0  79954-4 0  9992
2 48066  87.8981  44.1710 0001772  77.3706 282.7621 13.13471621198130
ONEWEB-0170             
1 48067U 21025AB  25110.82850642 -.00000204  00000+0 -59418-3 0  9996
2 48067  87.8983  44.1589 0001820  64.8569 295.2748 13.13471117198105
ONEWEB-0168             
1 48068U 21025AC  25110.73709509  .00000193  00000+0  49272-3 0  9994
2 48068  87.8986  44.1554 0001842  80.2271 279.9066 13.13470160198106
ONEWEB-0173             
1 48069U 21025AD  25110.34775441  .00000341  00000+0  89810-3 0  9997
2 48069  87.8986  44.2412 0001488  87.7688 272.3612 13.13471565198295
